{
    "links": {
        "self": "http://www.neowsapp.com/rest/v1/neo/3470497?api_key=iIulBulltgU6a56xZRHN4H3l9WmuAYTsLGpBGhQ2"
    },
    "id": "3470497",
    "neo_reference_id": "3470497",
    "name": "(2009 TB)",
    "designation": "2009 TB",
    "nasa_jpl_url": "http://ssd.jpl.nasa.gov/sbdb.cgi?sstr=3470497",
    "absolute_magnitude_h": 29.2,
    "estimated_diameter": {
        "kilometers": {
            "estimated_diameter_min": 0.0038419789,
            "estimated_diameter_max": 0.008590926
        },
        "meters": {
            "estimated_diameter_min": 3.8419789106,
            "estimated_diameter_max": 8.5909260123
        },
        "miles": {
            "estimated_diameter_min": 0.0023872943,
            "estimated_diameter_max": 0.0053381523
        },
        "feet": {
            "estimated_diameter_min": 12.6049180892,
            "estimated_diameter_max": 28.1854536983
        }
    },
    "is_potentially_hazardous_asteroid": false,
    "close_approach_data": [
        {
            "close_approach_date": "2009-10-01",
            "close_approach_date_full": "2009-Oct-01 04:10",
            "epoch_date_close_approach": 1254370200000,
            "relative_velocity": {
                "kilometers_per_second": "15.0973151277",
                "kilometers_per_hour": "54350.334459698",
                "miles_per_hour": "33771.1842091385"
            },
            "miss_distance": {
                "astronomical": "0.0004641998",
                "lunar": "0.1805737222",
                "kilometers": "69443.301334426",
                "miles": "43150.0665540388"
            },
            "orbiting_body": "Earth"
        },
        {
            "close_approach_date": "2009-10-01",
            "close_approach_date_full": "2009-Oct-01 08:14",
            "epoch_date_close_approach": 1254384840000,
            "relative_velocity": {
                "kilometers_per_second": "14.0584280183",
                "kilometers_per_hour": "50610.3408657616",
                "miles_per_hour": "31447.2976340617"
            },
            "miss_distance": {
                "astronomical": "0.0018114906",
                "lunar": "0.7046698434",
                "kilometers": "270995.135285022",
                "miles": "168388.5687844236"
            },
            "orbiting_body": "Moon"
        }
    ],
    "orbital_data": {
        "orbit_id": "7",
        "orbit_determination_date": "2017-04-06 08:59:43",
        "first_observation_date": "2009-10-02",
        "last_observation_date": "2009-10-02",
        "data_arc_in_days": null,
        "observations_used": 12,
        "orbit_uncertainty": "9",
        "minimum_orbit_intersection": ".000125686",
        "jupiter_tisserand_invariant": "3.073",
        "epoch_osculation": "2455106.5",
        "eccentricity": ".6602906342469386",
        "semi_major_axis": "2.564318680265731",
        "inclination": "8.198907568808359",
        "ascending_node_longitude": "7.989890940046262",
        "orbital_period": "1499.879678374626",
        "perihelion_distance": ".8711230724617992",
        "perihelion_argument": "312.2711396042996",
        "aphelion_distance": "4.257514288069664",
        "perihelion_time": "2455072.053679068967",
        "mean_anomaly": "8.267780218617343",
        "mean_motion": ".2400192530044283",
        "equinox": "J2000",
        "orbit_class": {
            "orbit_class_type": "APO",
            "orbit_class_description": "Near-Earth asteroid orbits which cross the Earth’s orbit similar to that of 1862 Apollo",
            "orbit_class_range": "a (semi-major axis) > 1.0 AU; q (perihelion) < 1.017 AU"
        }
    },
    "is_sentry_object": false
}